ONEWEB-0128             
1 47274U 20100S   24355.53620660 -.00000020  00000+0 -91527-4 0  9995
2 47274  87.8892  98.9458 0001362 108.6763 251.4513 13.12443351193432
ONEWEB-0129             
1 47275U 20100T   24355.59136931  .00000485  00000+0  13119-2 0  9997
2 47275  87.8886  98.8900 0002320 138.7156 221.4148 13.12443011193379
ONEWEB-0130             
1 47276U 20100U   24355.54270386 -.00000124  00000+0 -37964-3 0  9993
2 47276  87.8884  98.9042 0001547 110.4369 249.6926 13.12444121193334
ONEWEB-0131             
1 47277U 20100V   24355.53944974 -.00000067  00000+0 -22233-3 0  9993
2 47277  87.8887  98.9251 0001525 106.5224 253.6072 13.12443964193377
ONEWEB-0132             
1 47278U 20100W   24355.56864436 -.00000080  00000+0 -25752-3 0  9995
2 47278  87.8886  98.9210 0001590  96.1281 264.0029 13.12445822193273
ONEWEB-0133             
1 47279U 20100X   24355.58487770  .00000453  00000+0  12251-2 0  9991
2 47279  87.8880  98.9058 0001521 104.6046 255.5251 13.12443268193438
ONEWEB-0134             
1 47280U 20100Y   24355.55405262 -.00000348  00000+0 -10028-2 0  9991
2 47280  87.8880  98.8977 0001420 113.3911 246.7367 13.12442688193407
ONEWEB-0135             
1 47281U 20100Z   24355.52487024  .00001354  00000+0  37289-2 0  9999
2 47281  87.8887  98.9304 0001134 115.2268 244.8978 13.12438117193429
